NOAA 1 [-]              
1 04793U 70106A   23013.44913808 -.00000041  00000+0  19778-4 0  9994
2 04793 101.5289  76.7366 0031311 273.0713  97.9721 12.54010780383915
NOAA 2 (ITOS-D) [-]     
1 06235U 72082A   23014.20928288 -.00000019  00000+0  17038-3 0  9996
2 06235 101.9781   2.9373 0004175  33.8657 336.9480 12.53156016298594
NOAA 3 [-]              
1 06920U 73086A   23013.76101488 -.00000021  00000+0  18982-3 0  9999
2 06920 102.2330   1.1035 0006464 264.3754 269.4544 12.40351962226862
NOAA 4 [-]              
1 07529U 74089A   23014.18739204  .00000003  00000+0  30817-3 0  9999
2 07529 101.9405 359.6392 0009168  61.1288 310.1054 12.53164679203184
NOAA 5 [-]              
1 09057U 76077A   23013.92974683  .00000006  00000+0  39195-3 0  9990
2 09057 102.1322 344.9076 0009799 109.7600 255.6922 12.37778498 99784
TIROS N [-]             
1 11060U 78096A   23013.91084808  .00000296  00000+0  16385-3 0  9997
2 11060  98.6080  66.7708 0009585 255.5233 104.4879 14.18464685501441
NOAA 6 [-]              
1 11416U 79057A   23013.80177714  .00000525  00000+0  20463-3 0  9994
2 11416  98.6596  29.9468 0010332   4.1186 356.0082 14.33878618271660
NOAA 7 [-]              
1 12553U 81059A   23013.88205767  .00000123  00000+0  83228-4 0  9993
2 12553  98.9714  65.6048 0010713 234.2722 125.7456 14.17368491147601
NOAA 8 [-]              
1 13923U 83022A   23014.20673102  .00000332  00000+0  14911-3 0  9990
2 13923  98.7035   9.1109 0014346 316.4572  43.5476 14.28881025 72768
NOAA 9 [-]              
1 15427U 84123A   23014.18802461  .00000281  00000+0  16521-3 0  9995
2 15427  99.0732 355.1712 0013960 289.9826  80.6693 14.16268508966675
NOAA 10 [-]             
1 16969U 86073A   23014.24286983  .00000310  00000+0  14145-3 0  9998
2 16969  98.5896   1.7452 0013157  57.5949 313.0968 14.28267436891183
NOAA 11 [-]             
1 19531U 88089A   23013.66031027  .00000117  00000+0  81205-4 0  9994
2 19531  98.4473 356.4221 0010134 295.8854  64.1276 14.15346850770556
NOAA 12 [-]             
1 21263U 91032A   23013.91837481  .00000209  00000+0  10535-3 0  9996
2 21263  98.5245  12.9444 0014773  84.2035 276.0829 14.26045935646725
NOAA 13 [-]             
1 22739U 93050A   23014.48369090  .00000226  00000+0  14344-3 0  9997
2 22739  98.5326 349.0458 0010600  98.2226 262.0149 14.12901323517099
NOAA 14 [-]             
1 23455U 94089A   23013.89668579  .00000096  00000+0  71738-4 0  9990
2 23455  98.4340  34.0617 0010604  80.7411 279.4962 14.14230565446455
NOAA 15 [B]             
1 25338U 98030A   23014.52320601  .00000263  00000+0  12805-3 0  9999
2 25338  98.6240  46.0780 0011073  46.6106 313.5995 14.26222231283353
NOAA 16 [-]             
1 26536U 00055A   23013.86683778  .00000143  00000+0  98586-4 0  9991
2 26536  98.6087  70.2044 0009424 286.2186  73.7950 14.13374291447079
NOAA 17 [-]             
1 27453U 02032A   23014.61778839  .00000344  00000+0  16530-3 0  9995
2 27453  98.6986 322.6690 0012279  22.9104 337.2621 14.25192925 68947
NOAA 18 [B]             
1 28654U 05018A   23014.46672287  .00000300  00000+0  18524-3 0  9996
2 28654  98.9278  89.5093 0015204  95.5002 264.7905 14.12839335909861
NOAA 19 [+]             
1 33591U 09005A   23014.56308097  .00000242  00000+0  15529-3 0  9995
2 33591  99.1234  57.8742 0013193 317.8320  42.1835 14.12667068718252
SUOMI NPP [+]           
1 37849U 11061A   23014.52508674  .00000186  00000+0  10918-3 0  9993
2 37849  98.7551 315.3426 0001330  77.9670  41.3890 14.19535429581131
NOAA 20 [+]             
1 43013U 17073A   23014.53591714  .00000149  00000+0  91547-4 0  9997
2 43013  98.7390 314.9777 0001332 109.3721 250.7599 14.19544738267175
NOAA 21 (JPSS-2) [+]    
1 54234U 22150A   23014.27173124  .00000210  00000+0  12013-3 0  9997
2 54234  98.7030 314.7530 0001113  85.1362 274.9941 14.19555615  9211
